[{"OBJECT_NAME":"STARLINK-3369","OBJECT_ID":"2022-005AQ","EPOCH":"2026-03-09T22:22:22.044576","MEAN_MOTION":15.18998951,"ECCENTRICITY":0.00032386,"INCLINATION":53.2137,"RA_OF_ASC_NODE":280.745,"ARG_OF_PERICENTER":175.5204,"MEAN_ANOMALY":184.5822,"EPHEMERIS_TYPE":0,"CLASSIFICATION_TYPE":"U","NORAD_CAT_ID":51142,"ELEMENT_SET_NO":999,"REV_AT_EPOCH":22901,"BSTAR":0.0020382455,"MEAN_MOTION_DOT":0.00043116,"MEAN_MOTION_DDOT":0},{"OBJECT_NAME":"PIAST-S1","OBJECT_ID":"2025-276CM","EPOCH":"2026-03-09T17:19:42.400992","MEAN_MOTION":15.19110879,"ECCENTRICITY":0.00014695,"INCLINATION":97.4262,"RA_OF_ASC_NODE":144.0248,"ARG_OF_PERICENTER":354.6822,"MEAN_ANOMALY":5.4397,"EPHEMERIS_TYPE":0,"CLASSIFICATION_TYPE":"U","NORAD_CAT_ID":66749,"ELEMENT_SET_NO":999,"REV_AT_EPOCH":1532,"BSTAR":0.00033676553,"MEAN_MOTION_DOT":7.004e-5,"MEAN_MOTION_DDOT":0}]
